SKYSAT-C1               
1 41601U 16040C   26160.59535874  .00008328  00000+0  23834-3 0  9997
2 41601  96.9572 192.7273 0004068  72.7025 287.4665 15.36171729556707
LAPAN-A3                
1 41603U 16040E   26160.94613914  .00003108  00000+0  99507-4 0  9992
2 41603  97.1486 157.3299 0011654  49.2841 310.9413 15.33058809553705
GAOFEN-3                
1 41727U 16049A   26160.93803786 -.00000024  00000+0  57570-5 0  9995
2 41727  98.4017 168.8334 0001252 101.1117 259.0214 14.42214318517609
SKYSAT-C4               
1 41771U 16058B   26160.77131676  .00015617  00000+0  29660-3 0  9998
2 41771  96.9183 182.8549 0000863 106.3026 253.8320 15.48355623544323
SKYSAT-C5               
1 41772U 16058C   26160.66955251  .00006904  00000+0  20972-3 0  9996
2 41772  97.0480 201.6455 0001890   0.7925 359.3322 15.34361842542594
SKYSAT-C2               
1 41773U 16058D   26160.60188163  .00011443  00000+0  27109-3 0  9994
2 41773  97.0175 182.9832 0005075  86.9256 273.2573 15.41897367543887
SKYSAT-C3               
1 41774U 16058E   26160.60154483  .00020069  00000+0  33218-3 0  9995
2 41774  96.9014 191.7423 0001859  84.2706 275.8760 15.52212965544939
ALSAT-1B                
1 41785U 16059C   26160.90012515  .00000310  00000+0  56528-4 0  9997
2 41785  97.7756 169.9785 0007744 247.6215 112.4172 14.72269221519506
PATHFINDER 1            
1 41787U 16059E   26160.70523312  .00000541  00000+0  10282-3 0  9991
2 41787  97.8166 160.3191 0027284 228.2023 131.6852 14.67654708518614
SCATSAT 1               
1 41790U 16059H   26160.77390246  .00000933  00000+0  12940-3 0  9998
2 41790  98.1192 224.4634 0053272 272.0306  87.4805 14.79510008100498
GOKTURK 1A              
1 41875U 16073A   26160.99490308  .00000294  00000+0  66771-4 0  9994
2 41875  98.1256  55.7817 0001468  77.5252 282.6114 14.62769340507770
RESOURCESAT-2A          
1 41877U 16074A   26160.96219771  .00000272  00000+0  14433-3 0  9990
2 41877  98.7523 234.5254 0003341  97.3227 262.8330 14.21614781493273
CARTOSAT-2D             
1 41948U 17008A   26160.97945976  .00003589  00000+0  17335-3 0  9999
2 41948  97.4109 220.4198 0003637 261.9883  98.0939 15.19276838516482
SENTINEL-2B             
1 42063U 17013A   26160.93475690 -.00000051  00000+0 -28036-5 0  9996
2 42063  98.5688 235.8114 0001196  85.2818 274.8502 14.30814478483603
CARTOSAT-2E             
1 42767U 17036C   26160.93120302  .00002649  00000+0  12888-3 0  9998
2 42767  97.4278 220.8529 0002953 353.2558   6.8636 15.19263214497040
FORMOSAT-5              
1 42920U 17049A   26160.81174542  .00000137  00000+0  45668-4 0  9998
2 42920  98.2253 236.2852 0012675 104.6428 255.6173 14.50896149465609
SENTINEL-5P             
1 42969U 17064A   26160.73036203  .00000046  00000+0  42699-4 0  9990
2 42969  98.7924 102.9147 0000994  82.2124 277.9165 14.19517746448509
SKYSAT-C11              
1 42987U 17068A   26160.66975222  .00024381  00000+0  33255-3 0  9994
2 42987  97.4342 309.1767 0000980  88.1142 272.0226 15.57503015482079
SKYSAT-C10              
1 42988U 17068B   26160.33712886  .00008249  00000+0  24919-3 0  9996
2 42988  97.4492 297.1095 0001241  90.4009 269.7376 15.34504232481159
SKYSAT-C9               
1 42989U 17068C   26160.64386720  .00011906  00000+0  28678-3 0  9995
2 42989  97.4412 298.2822 0009041 157.1887 202.9763 15.41374081481595
SKYSAT-C8               
1 42990U 17068D   26160.64591650  .00009649  00000+0  27034-3 0  9993
2 42990  97.4508 297.1924 0001553  97.8359 262.3061 15.36827206481157
SKYSAT-C7               
1 42991U 17068E   26160.63928334  .00009581  00000+0  26871-3 0  9999
2 42991  97.4519 298.1747 0007042 128.7138 231.4737 15.36775179481217
SKYSAT-C6               
1 42992U 17068F   26160.64589622  .00008639  00000+0  26434-3 0  9992
2 42992  97.4556 298.1786 0004010 157.5498 202.5921 15.34079678481160
CARTOSAT-2F             
1 43111U 18004A   26159.44816360  .00005190  00000+0  24903-3 0  9993
2 43111  97.4787 219.1684 0000041 272.9757  87.1473 15.19309472466006
GAOFEN-1 02             
1 43259U 18031A   26160.97925645  .00000272  00000+0  46473-4 0  9996
2 43259  98.0526 223.5263 0004269  49.4936 310.6645 14.76470437441630
GAOFEN-1 03             
1 43260U 18031B   26160.95744631  .00000619  00000+0  96390-4 0  9998
2 43260  98.0525 223.3636 0003829  93.4260 266.7388 14.76458693441627
GAOFEN-1 04             
1 43262U 18031D   26160.93316024  .00000627  00000+0  97520-4 0  9994
2 43262  98.0528 223.5292 0002246  89.5594 270.5873 14.76468699441618
SENTINEL-3B             
1 43437U 18039A   26160.68580324  .00000095  00000+0  57478-4 0  9991
2 43437  98.6249 228.3256 0000841  79.2516 280.8759 14.26739692423054
GAOFEN-5 01             
1 43461U 18043A   26160.66316171  .00000312  00000+0  74364-4 0  9993
2 43461  98.4565 132.0916 0003027  96.9560 263.1984 14.60600294430592
GAOFEN-6                
1 43484U 18048A   26160.07493644  .00000804  00000+0  12207-3 0  9992
2 43484  97.7757 223.0567 0011378 194.8499 165.2379 14.76624229432191
