OBJECT_NAME,OBJECT_ID,EPOCH,MEAN_MOTION,ECCENTRICITY,INCLINATION,RA_OF_ASC_NODE,ARG_OF_PERICENTER,MEAN_ANOMALY,EPHEMERIS_TYPE,CLASSIFICATION_TYPE,NORAD_CAT_ID,ELEMENT_SET_NO,REV_AT_EPOCH,BSTAR,MEAN_MOTION_DOT,MEAN_MOTION_DDOT
SKYSAT-C1,2016-040C,2026-06-09T14:17:18.995136,15.36171729,.0004068,96.9572,192.7273,72.7025,287.4665,0,U,41601,999,55670,.23834028E-3,.8328E-4,0
LAPAN-A3,2016-040E,2026-06-09T22:42:26.421696,15.33058809,.00116546,97.1486,157.3299,49.2841,310.9413,0,U,41603,999,55370,.99507171E-4,.3108E-4,0
GAOFEN-3,2016-049A,2026-06-09T22:30:46.471104,14.42214318,.00012523,98.4017,168.8334,101.1117,259.0214,0,U,41727,999,51760,.5757033E-5,-.24E-6,0
SKYSAT-C4,2016-058B,2026-06-09T18:30:41.768064,15.48355623,.00008634,96.9183,182.8549,106.3026,253.8320,0,U,41771,999,54432,.29660345E-3,.15617E-3,0
SKYSAT-C5,2016-058C,2026-06-09T16:04:09.336864,15.34361842,.00018907,97.0480,201.6455,0.7925,359.3322,0,U,41772,999,54259,.20972257E-3,.6904E-4,0
SKYSAT-C2,2016-058D,2026-06-09T14:26:42.572832,15.41897367,.00050751,97.0175,182.9832,86.9256,273.2573,0,U,41773,999,54388,.27109104E-3,.11443E-3,0
SKYSAT-C3,2016-058E,2026-06-09T14:26:13.473312,15.52212965,.00018598,96.9014,191.7423,84.2706,275.8760,0,U,41774,999,54493,.33218215E-3,.20069E-3,0
ALSAT-1B,2016-059C,2026-06-09T21:36:10.812960,14.72269221,.00077446,97.7756,169.9785,247.6215,112.4172,0,U,41785,999,51950,.56528452E-4,.31E-5,0
PATHFINDER 1,2016-059E,2026-06-09T16:55:32.141568,14.67654708,.00272849,97.8166,160.3191,228.2023,131.6852,0,U,41787,999,51861,.10282265E-3,.541E-5,0
SCATSAT 1,2016-059H,2026-06-09T18:34:25.172544,14.79510008,.00532725,98.1192,224.4634,272.0306,87.4805,0,U,41790,999,10049,.12940111E-3,.933E-5,0
GOKTURK 1A,2016-073A,2026-06-09T23:52:39.626112,14.62769340,.00014686,98.1256,55.7817,77.5252,282.6114,0,U,41875,999,50777,.6677125E-4,.294E-5,0
RESOURCESAT-2A,2016-074A,2026-06-09T23:05:33.882144,14.21614781,.00033411,98.7523,234.5254,97.3227,262.8330,0,U,41877,999,49327,.14433179E-3,.272E-5,0
CARTOSAT-2D,2017-008A,2026-06-09T23:30:25.323264,15.19276838,.00036372,97.4109,220.4198,261.9883,98.0939,0,U,41948,999,51648,.17334957E-3,.3589E-4,0
SENTINEL-2B,2017-013A,2026-06-09T22:26:02.996160,14.30814478,.00011967,98.5688,235.8114,85.2818,274.8502,0,U,42063,999,48360,-.2803554E-5,-.51E-6,0
CARTOSAT-2E,2017-036C,2026-06-09T22:20:55.940928,15.19263214,.00029538,97.4278,220.8529,353.2558,6.8636,0,U,42767,999,49704,.1288762E-3,.2649E-4,0
FORMOSAT-5,2017-049A,2026-06-09T19:28:54.804288,14.50896149,.0012675,98.2253,236.2852,104.6428,255.6173,0,U,42920,999,46560,.45667594E-4,.137E-5,0
SENTINEL-5P,2017-064A,2026-06-09T17:31:43.279392,14.19517746,.00009948,98.7924,102.9147,82.2124,277.9165,0,U,42969,999,44850,.42699441E-4,.46E-6,0
SKYSAT-C11,2017-068A,2026-06-09T16:04:26.591808,15.57503015,.00009809,97.4342,309.1767,88.1142,272.0226,0,U,42987,999,48207,.3325496E-3,.24381E-3,0
SKYSAT-C10,2017-068B,2026-06-09T08:05:27.933504,15.34504232,.00012414,97.4492,297.1095,90.4009,269.7376,0,U,42988,999,48115,.24919262E-3,.8249E-4,0
SKYSAT-C9,2017-068C,2026-06-09T15:27:10.126080,15.41374081,.00090415,97.4412,298.2822,157.1887,202.9763,0,U,42989,999,48159,.28678126E-3,.11906E-3,0
SKYSAT-C8,2017-068D,2026-06-09T15:30:07.185600,15.36827206,.00015532,97.4508,297.1924,97.8359,262.3061,0,U,42990,999,48115,.27033824E-3,.9649E-4,0
SKYSAT-C7,2017-068E,2026-06-09T15:20:34.080576,15.36775179,.00070425,97.4519,298.1747,128.7138,231.4737,0,U,42991,999,48121,.26870831E-3,.9581E-4,0
SKYSAT-C6,2017-068F,2026-06-09T15:30:05.433408,15.34079678,.00040106,97.4556,298.1786,157.5498,202.5921,0,U,42992,999,48116,.26433994E-3,.8639E-4,0
CARTOSAT-2F,2018-004A,2026-06-08T10:45:21.335040,15.19309472,.00000418,97.4787,219.1684,272.9757,87.1473,0,U,43111,999,46600,.24903257E-3,.519E-4,0
GAOFEN-1 02,2018-031A,2026-06-09T23:30:07.757280,14.76470437,.00042698,98.0526,223.5263,49.4936,310.6645,0,U,43259,999,44163,.46473021E-4,.272E-5,0
GAOFEN-1 03,2018-031B,2026-06-09T22:58:43.361184,14.76458693,.00038291,98.0525,223.3636,93.4260,266.7388,0,U,43260,999,44162,.96390122E-4,.619E-5,0
GAOFEN-1 04,2018-031D,2026-06-09T22:23:45.044736,14.76468699,.00022463,98.0528,223.5292,89.5594,270.5873,0,U,43262,999,44161,.97520354E-4,.627E-5,0
SENTINEL-3B,2018-039A,2026-06-09T16:27:33.399936,14.26739692,.00008411,98.6249,228.3256,79.2516,280.8759,0,U,43437,999,42305,.57478359E-4,.95E-6,0
GAOFEN-5 01,2018-043A,2026-06-09T15:54:57.171744,14.60600294,.00030273,98.4565,132.0916,96.9560,263.1984,0,U,43461,999,43059,.7436363E-4,.312E-5,0
GAOFEN-6,2018-048A,2026-06-09T01:47:54.508416,14.76624229,.0011378,97.7757,223.0567,194.8499,165.2379,0,U,43484,999,43219,.12207314E-3,.804E-5,0
